[{"OBJECT_NAME":"ONEWEB-0161","OBJECT_ID":"2021-025M","EPOCH":"2025-08-10T21:32:31.700832","MEAN_MOTION":13.1347259,"ECCENTRICITY":0.0001596,"INCLINATION":87.8981,"RA_OF_ASC_NODE":21.8649,"ARG_OF_PERICENTER":96.4587,"MEAN_ANOMALY":263.6724,"EPHEMERIS_TYPE":0,"CLASSIFICATION_TYPE":"U","NORAD_CAT_ID":48053,"ELEMENT_SET_NO":999,"REV_AT_EPOCH":21277,"BSTAR":0.00083255,"MEAN_MOTION_DOT":3.17e-6,"MEAN_MOTION_DDOT":0},{"OBJECT_NAME":"ONEWEB-0158","OBJECT_ID":"2021-025N","EPOCH":"2025-08-11T03:52:49.106208","MEAN_MOTION":13.13468305,"ECCENTRICITY":0.0001948,"INCLINATION":87.8981,"RA_OF_ASC_NODE":21.7919,"ARG_OF_PERICENTER":94.0144,"MEAN_ANOMALY":266.1208,"EPHEMERIS_TYPE":0,"CLASSIFICATION_TYPE":"U","NORAD_CAT_ID":48054,"ELEMENT_SET_NO":999,"REV_AT_EPOCH":21293,"BSTAR":-0.00092133,"MEAN_MOTION_DOT":-3.24e-6,"MEAN_MOTION_DDOT":0},{"OBJECT_NAME":"ONEWEB-0157","OBJECT_ID":"2021-025P","EPOCH":"2025-08-11T04:29:23.191008","MEAN_MOTION":13.13470696,"ECCENTRICITY":0.0001337,"INCLINATION":87.8977,"RA_OF_ASC_NODE":21.7963,"ARG_OF_PERICENTER":98.07,"MEAN_ANOMALY":262.0581,"EPHEMERIS_TYPE":0,"CLASSIFICATION_TYPE":"U","NORAD_CAT_ID":48055,"ELEMENT_SET_NO":999,"REV_AT_EPOCH":21287,"BSTAR":0.000375,"MEAN_MOTION_DOT":1.5e-6,"MEAN_MOTION_DDOT":0},{"OBJECT_NAME":"ONEWEB-0162","OBJECT_ID":"2021-025Q","EPOCH":"2025-08-10T22:25:58.460160","MEAN_MOTION":13.13470225,"ECCENTRICITY":0.0001738,"INCLINATION":87.8981,"RA_OF_ASC_NODE":21.845,"ARG_OF_PERICENTER":95.2703,"MEAN_ANOMALY":264.8624,"EPHEMERIS_TYPE":0,"CLASSIFICATION_TYPE":"U","NORAD_CAT_ID":48056,"ELEMENT_SET_NO":999,"REV_AT_EPOCH":21281,"BSTAR":-0.00089582,"MEAN_MOTION_DOT":-3.14e-6,"MEAN_MOTION_DDOT":0},{"OBJECT_NAME":"ONEWEB-0155","OBJECT_ID":"2021-025R","EPOCH":"2025-08-11T04:04:59.667456","MEAN_MOTION":13.13469042,"ECCENTRICITY":0.0001636,"INCLINATION":87.8978,"RA_OF_ASC_NODE":21.8063,"ARG_OF_PERICENTER":88.9643,"MEAN_ANOMALY":271.1673,"EPHEMERIS_TYPE":0,"CLASSIFICATION_TYPE":"U","NORAD_CAT_ID":48057,"ELEMENT_SET_NO":999,"REV_AT_EPOCH":21298,"BSTAR":-0.00067502,"MEAN_MOTION_DOT":-2.34e-6,"MEAN_MOTION_DDOT":0},{"OBJECT_NAME":"ONEWEB-0149","OBJECT_ID":"2021-025S","EPOCH":"2025-08-11T04:36:42.256800","MEAN_MOTION":13.13470466,"ECCENTRICITY":0.0001847,"INCLINATION":87.8977,"RA_OF_ASC_NODE":21.7963,"ARG_OF_PERICENTER":101.4058,"MEAN_ANOMALY":258.7279,"EPHEMERIS_TYPE":0,"CLASSIFICATION_TYPE":"U","NORAD_CAT_ID":48058,"ELEMENT_SET_NO":999,"REV_AT_EPOCH":21279,"BSTAR":0.00071379,"MEAN_MOTION_DOT":2.73e-6,"MEAN_MOTION_DDOT":0},{"OBJECT_NAME":"ONEWEB-0148","OBJECT_ID":"2021-025T","EPOCH":"2025-08-11T03:43:03.391968","MEAN_MOTION":13.13468503,"ECCENTRICITY":0.0001718,"INCLINATION":87.8979,"RA_OF_ASC_NODE":21.8279,"ARG_OF_PERICENTER":115.5741,"MEAN_ANOMALY":244.5565,"EPHEMERIS_TYPE":0,"CLASSIFICATION_TYPE":"U","NORAD_CAT_ID":48059,"ELEMENT_SET_NO":999,"REV_AT_EPOCH":21291,"BSTAR":-0.00078254,"MEAN_MOTION_DOT":-2.73e-6,"MEAN_MOTION_DDOT":0},{"OBJECT_NAME":"ONEWEB-0160","OBJECT_ID":"2021-025U","EPOCH":"2025-08-11T04:07:27.290496","MEAN_MOTION":13.13470013,"ECCENTRICITY":0.0002584,"INCLINATION":87.8979,"RA_OF_ASC_NODE":21.8221,"ARG_OF_PERICENTER":88.4147,"MEAN_ANOMALY":271.7278,"EPHEMERIS_TYPE":0,"CLASSIFICATION_TYPE":"U","NORAD_CAT_ID":48060,"ELEMENT_SET_NO":999,"REV_AT_EPOCH":21286,"BSTAR":-0.00073333,"MEAN_MOTION_DOT":-2.55e-6,"MEAN_MOTION_DDOT":0},{"OBJECT_NAME":"ONEWEB-0163","OBJECT_ID":"2021-025V","EPOCH":"2025-08-11T03:45:30.676320","MEAN_MOTION":13.13469968,"ECCENTRICITY":0.0001466,"INCLINATION":87.8978,"RA_OF_ASC_NODE":21.8052,"ARG_OF_PERICENTER":94.8828,"MEAN_ANOMALY":265.2468,"EPHEMERIS_TYPE":0,"CLASSIFICATION_TYPE":"U","NORAD_CAT_ID":48061,"ELEMENT_SET_NO":999,"REV_AT_EPOCH":21298,"BSTAR":-0.00093486,"MEAN_MOTION_DOT":-3.29e-6,"MEAN_MOTION_DDOT":0},{"OBJECT_NAME":"ONEWEB-0159","OBJECT_ID":"2021-025W","EPOCH":"2025-08-11T05:23:00.396960","MEAN_MOTION":13.1347038,"ECCENTRICITY":0.0001564,"INCLINATION":87.898,"RA_OF_ASC_NODE":21.7734,"ARG_OF_PERICENTER":98.897,"MEAN_ANOMALY":261.2336,"EPHEMERIS_TYPE":0,"CLASSIFICATION_TYPE":"U","NORAD_CAT_ID":48062,"ELEMENT_SET_NO":999,"REV_AT_EPOCH":21291,"BSTAR":-0.0001395,"MEAN_MOTION_DOT":-3.8e-7,"MEAN_MOTION_DDOT":0},{"OBJECT_NAME":"ONEWEB-0164","OBJECT_ID":"2021-025X","EPOCH":"2025-08-11T04:56:12.161184","MEAN_MOTION":13.1347037,"ECCENTRICITY":0.000181,"INCLINATION":87.8978,"RA_OF_ASC_NODE":21.7871,"ARG_OF_PERICENTER":92.8829,"MEAN_ANOMALY":267.2508,"EPHEMERIS_TYPE":0,"CLASSIFICATION_TYPE":"U","NORAD_CAT_ID":48063,"ELEMENT_SET_NO":999,"REV_AT_EPOCH":21289,"BSTAR":0.00089015,"MEAN_MOTION_DOT":3.38e-6,"MEAN_MOTION_DDOT":0},{"OBJECT_NAME":"ONEWEB-0167","OBJECT_ID":"2021-025Y","EPOCH":"2025-08-11T03:46:43.930560","MEAN_MOTION":13.13470562,"ECCENTRICITY":0.0001328,"INCLINATION":87.8987,"RA_OF_ASC_NODE":21.8296,"ARG_OF_PERICENTER":69.1033,"MEAN_ANOMALY":291.0238,"EPHEMERIS_TYPE":0,"CLASSIFICATION_TYPE":"U","NORAD_CAT_ID":48064,"ELEMENT_SET_NO":999,"REV_AT_EPOCH":21287,"BSTAR":-0.00067578,"MEAN_MOTION_DOT":-2.34e-6,"MEAN_MOTION_DDOT":0},{"OBJECT_NAME":"ONEWEB-0166","OBJECT_ID":"2021-025Z","EPOCH":"2025-08-11T04:19:38.269056","MEAN_MOTION":13.13470924,"ECCENTRICITY":0.0001739,"INCLINATION":87.8974,"RA_OF_ASC_NODE":21.7766,"ARG_OF_PERICENTER":99.9621,"MEAN_ANOMALY":260.1704,"EPHEMERIS_TYPE":0,"CLASSIFICATION_TYPE":"U","NORAD_CAT_ID":48065,"ELEMENT_SET_NO":999,"REV_AT_EPOCH":21295,"BSTAR":-0.00017167,"MEAN_MOTION_DOT":-5.0e-7,"MEAN_MOTION_DDOT":0},{"OBJECT_NAME":"ONEWEB-0151","OBJECT_ID":"2021-025AA","EPOCH":"2025-08-11T04:22:04.476000","MEAN_MOTION":13.13470523,"ECCENTRICITY":0.0001735,"INCLINATION":87.8979,"RA_OF_ASC_NODE":21.8003,"ARG_OF_PERICENTER":89.7245,"MEAN_ANOMALY":270.4083,"EPHEMERIS_TYPE":0,"CLASSIFICATION_TYPE":"U","NORAD_CAT_ID":48066,"ELEMENT_SET_NO":999,"REV_AT_EPOCH":21289,"BSTAR":-0.00014995,"MEAN_MOTION_DOT":-4.2e-7,"MEAN_MOTION_DDOT":0},{"OBJECT_NAME":"ONEWEB-0170","OBJECT_ID":"2021-025AB","EPOCH":"2025-08-11T04:34:15.877920","MEAN_MOTION":13.13471084,"ECCENTRICITY":0.0002058,"INCLINATION":87.898,"RA_OF_ASC_NODE":21.8045,"ARG_OF_PERICENTER":81.8499,"MEAN_ANOMALY":278.2864,"EPHEMERIS_TYPE":0,"CLASSIFICATION_TYPE":"U","NORAD_CAT_ID":48067,"ELEMENT_SET_NO":999,"REV_AT_EPOCH":21285,"BSTAR":0.00056591,"MEAN_MOTION_DOT":2.19e-6,"MEAN_MOTION_DDOT":0},{"OBJECT_NAME":"ONEWEB-0168","OBJECT_ID":"2021-025AC","EPOCH":"2025-08-11T04:12:18.385920","MEAN_MOTION":13.13474366,"ECCENTRICITY":0.0001605,"INCLINATION":87.8981,"RA_OF_ASC_NODE":21.7888,"ARG_OF_PERICENTER":96.2017,"MEAN_ANOMALY":263.9295,"EPHEMERIS_TYPE":0,"CLASSIFICATION_TYPE":"U","NORAD_CAT_ID":48068,"ELEMENT_SET_NO":999,"REV_AT_EPOCH":21286,"BSTAR":-0.00056717,"MEAN_MOTION_DOT":-1.94e-6,"MEAN_MOTION_DDOT":0},{"OBJECT_NAME":"ONEWEB-0173","OBJECT_ID":"2021-025AD","EPOCH":"2025-08-11T04:00:07.900704","MEAN_MOTION":13.13470152,"ECCENTRICITY":0.0001348,"INCLINATION":87.898,"RA_OF_ASC_NODE":21.7988,"ARG_OF_PERICENTER":88.8331,"MEAN_ANOMALY":271.2953,"EPHEMERIS_TYPE":0,"CLASSIFICATION_TYPE":"U","NORAD_CAT_ID":48069,"ELEMENT_SET_NO":999,"REV_AT_EPOCH":21310,"BSTAR":-0.0008789,"MEAN_MOTION_DOT":-3.08e-6,"MEAN_MOTION_DDOT":0}]
